{"type": "FeatureCollection", "features": [ {"type": "Feature", "properties": {"norad_id": 44476, "name": "INTELSAT 39 (IS-39)", "group": "intelsat", "lat": -0.04326561774355653, "lon": -136.35529461058948, "alt_km": 35786.62613680916, "timestamp": "2025-12-18T04:58:34.248543+00:00", "meta": {"OBJECT_NAME": "INTELSAT 39 (IS-39)", "OBJECT_ID": "2019-049B", "EPOCH": "2025-12-17T18:45:21.347712", "MEAN_MOTION": 1.00270128, "ECCENTRICITY": 0.00012769, "INCLINATION": 0.0266, "RA_OF_ASC_NODE": 351.4915, "ARG_OF_PERICENTER": 141.3587, "MEAN_ANOMALY": 297.0708, "EPHEMERIS_TYPE": 0, "CLASSIFICATION_TYPE": "U", "NORAD_CAT_ID": 44476, "ELEMENT_SET_NO": 999, "REV_AT_EPOCH": 2330, "BSTAR": 0, "MEAN_MOTION_DOT": 0, "MEAN_MOTION_DDOT": 0}, "tle": {"line1": "1 44476U 19049B   25351.78149708  .00000000  00000+0  00000+0 0  9996", "line2": "2 44476   0.0266 351.4915 0001276 141.3587 297.0708  1.00270128 23306"}}, "geometry": {"type": "Point", "coordinates": [-136.35529461058948, -0.04326561774355653]}}, {"type": "Feature", "properties": {"norad_id": 46114, "name": "GALAXY 30 (G-30)", "group": "intelsat", "lat": 0.036759556280681664, "lon": 36.728655966335296, "alt_km": 35791.32166432302, "timestamp": "2025-12-18T04:58:34.248554+00:00", "meta": {"OBJECT_NAME": "GALAXY 30 (G-30)", "OBJECT_ID": "2020-056C", "EPOCH": "2025-12-17T16:09:21.285792", "MEAN_MOTION": 1.00272596, "ECCENTRICITY": 0.00020342, "INCLINATION": 0.0187, "RA_OF_ASC_NODE": 340.7009, "ARG_OF_PERICENTER": 286.3585, "MEAN_ANOMALY": 296.8309, "EPHEMERIS_TYPE": 0, "CLASSIFICATION_TYPE": "U", "NORAD_CAT_ID": 46114, "ELEMENT_SET_NO": 999, "REV_AT_EPOCH": 1947, "BSTAR": 0, "MEAN_MOTION_DOT": 6.2e-07, "MEAN_MOTION_DDOT": 0}, "tle": {"line1": "1 46114U 20056C   25351.67316303  .00000062  00000+0  00000+0 0  9990", "line2": "2 46114   0.0187 340.7009 0002034 286.3585 296.8309  1.00272596 19473"}}, "geometry": {"type": "Point", "coordinates": [36.728655966335296, 0.036759556280681664]}}, {"type": "Feature", "properties": {"norad_id": 54026, "name": "GALAXY 33 (G-33)", "group": "intelsat", "lat": 0.020831202218973336, "lon": 28.727137235771316, "alt_km": 35790.156197846074, "timestamp": "2025-12-18T04:58:34.248566+00:00", "meta": {"OBJECT_NAME": "GALAXY 33 (G-33)", "OBJECT_ID": "2022-128A", "EPOCH": "2025-12-17T16:07:06.500928", "MEAN_MOTION": 1.00270214, "ECCENTRICITY": 0.00015643, "INCLINATION": 0.0152, "RA_OF_ASC_NODE": 6.2977, "ARG_OF_PERICENTER": 258.6786, "MEAN_ANOMALY": 290.3568, "EPHEMERIS_TYPE": 0, "CLASSIFICATION_TYPE": "U", "NORAD_CAT_ID": 54026, "ELEMENT_SET_NO": 999, "REV_AT_EPOCH": 1192, "BSTAR": 0, "MEAN_MOTION_DOT": 1.04e-06, "MEAN_MOTION_DDOT": 0}, "tle": {"line1": "1 54026U 22128A   25351.67160302  .00000104  00000+0  00000+0 0  9996", "line2": "2 54026   0.0152   6.2977 0001564 258.6786 290.3568  1.00270214 11929"}}, "geometry": {"type": "Point", "coordinates": [28.727137235771316, 0.020831202218973336]}}, {"type": "Feature", "properties": {"norad_id": 54027, "name": "GALAXY 34 (G-34)", "group": "intelsat", "lat": 0.036013075096248064, "lon": 32.798650715889146, "alt_km": 35790.190316281216, "timestamp": "2025-12-18T04:58:34.248578+00:00", "meta": {"OBJECT_NAME": "GALAXY 34 (G-34)", "OBJECT_ID": "2022-128B", "EPOCH": "2025-12-17T16:08:13.893792", "MEAN_MOTION": 1.00271751, "ECCENTRICITY": 0.00014468, "INCLINATION": 0.0228, "RA_OF_ASC_NODE": 346.727, "ARG_OF_PERICENTER": 273.4823, "MEAN_ANOMALY": 299.4768, "EPHEMERIS_TYPE": 0, "CLASSIFICATION_TYPE": "U", "NORAD_CAT_ID": 54027, "ELEMENT_SET_NO": 999, "REV_AT_EPOCH": 1209, "BSTAR": 0, "MEAN_MOTION_DOT": 0, "MEAN_MOTION_DDOT": 0}, "tle": {"line1": "1 54027U 22128B   25351.67238303  .00000000  00000+0  00000+0 0  9999", "line2": "2 54027   0.0228 346.7270 0001446 273.4823 299.4768  1.00271751 12096"}}, "geometry": {"type": "Point", "coordinates": [32.798650715889146, 0.036013075096248064]}}, {"type": "Feature", "properties": {"norad_id": 54243, "name": "GALAXY 31 (G-31)", "group": "intelsat", "lat": 0.017612571880525826, "lon": 40.71851676094979, "alt_km": 35789.02641557969, "timestamp": "2025-12-18T04:58:34.248590+00:00", "meta": {"OBJECT_NAME": "GALAXY 31 (G-31)", "OBJECT_ID": "2022-153A", "EPOCH": "2025-12-17T16:10:28.678656", "MEAN_MOTION": 1.00271979, "ECCENTRICITY": 0.00014742, "INCLINATION": 0.0189, "RA_OF_ASC_NODE": 32.552, "ARG_OF_PERICENTER": 249.3017, "MEAN_ANOMALY": 286.3123, "EPHEMERIS_TYPE": 0, "CLASSIFICATION_TYPE": "U", "NORAD_CAT_ID": 54243, "ELEMENT_SET_NO": 999, "REV_AT_EPOCH": 531, "BSTAR": 0, "MEAN_MOTION_DOT": 0, "MEAN_MOTION_DDOT": 0}, "tle": {"line1": "1 54243U 22153A   25351.67394304  .00000000  00000+0  00000+0 0  9991", "line2": "2 54243   0.0189  32.5520 0001474 249.3017 286.3123  1.00271979  5317"}}, "geometry": {"type": "Point", "coordinates": [40.71851676094979, 0.017612571880525826]}}, {"type": "Feature", "properties": {"norad_id": 54244, "name": "GALAXY 32 (G-32)", "group": "intelsat", "lat": 0.03640431464150168, "lon": 70.73018334499555, "alt_km": 35790.3542667713, "timestamp": "2025-12-18T04:58:34.248601+00:00", "meta": {"OBJECT_NAME": "GALAXY 32 (G-32)", "OBJECT_ID": "2022-153B", "EPOCH": "2025-12-17T04:19:59.261664", "MEAN_MOTION": 1.00271531, "ECCENTRICITY": 0.000259, "INCLINATION": 0.0104, "RA_OF_ASC_NODE": 339.7375, "ARG_OF_PERICENTER": 338.8221, "MEAN_ANOMALY": 101.4983, "EPHEMERIS_TYPE": 0, "CLASSIFICATION_TYPE": "U", "NORAD_CAT_ID": 54244, "ELEMENT_SET_NO": 999, "REV_AT_EPOCH": 1131, "BSTAR": 0, "MEAN_MOTION_DOT": -1.5e-06, "MEAN_MOTION_DDOT": 0}, "tle": {"line1": "1 54244U 22153B   25351.18054701 -.00000150  00000+0  00000+0 0  9999", "line2": "2 54244   0.0104 339.7375 0002590 338.8221 101.4983  1.00271531 11318"}}, "geometry": {"type": "Point", "coordinates": [70.73018334499555, 0.03640431464150168]}}, {"type": "Feature", "properties": {"norad_id": 54741, "name": "GALAXY 35 (G-35)", "group": "intelsat", "lat": 0.03776627652992056, "lon": 68.59831990272458, "alt_km": 35794.64414698858, "timestamp": "2025-12-18T04:58:34.248613+00:00", "meta": {"OBJECT_NAME": "GALAXY 35 (G-35)", "OBJECT_ID": "2022-170A", "EPOCH": "2025-12-17T12:54:21.227616", "MEAN_MOTION": 1.0027101, "ECCENTRICITY": 0.00021355, "INCLINATION": 0.0185, "RA_OF_ASC_NODE": 16.6806, "ARG_OF_PERICENTER": 255.1327, "MEAN_ANOMALY": 275.0748, "EPHEMERIS_TYPE": 0, "CLASSIFICATION_TYPE": "U", "NORAD_CAT_ID": 54741, "ELEMENT_SET_NO": 999, "REV_AT_EPOCH": 1107, "BSTAR": 0, "MEAN_MOTION_DOT": 0, "MEAN_MOTION_DDOT": 0}, "tle": {"line1": "1 54741U 22170A   25351.53774569  .00000000  00000+0  00000+0 0  9993", "line2": "2 54741   0.0185  16.6806 0002135 255.1327 275.0748  1.00271010 11074"}}, "geometry": {"type": "Point", "coordinates": [68.59831990272458, 0.03776627652992056]}}, {"type": "Feature", "properties": {"norad_id": 54742, "name": "GALAXY 36 (G-36)", "group": "intelsat", "lat": 0.023630121857003812, "lon": 72.71053720239239, "alt_km": 35785.95027555172, "timestamp": "2025-12-18T04:58:34.248624+00:00", "meta": {"OBJECT_NAME": "GALAXY 36 (G-36)", "OBJECT_ID": "2022-170B", "EPOCH": "2025-12-17T14:36:52.642368", "MEAN_MOTION": 1.0027201, "ECCENTRICITY": 2.709e-05, "INCLINATION": 0.0136, "RA_OF_ASC_NODE": 286.7849, "ARG_OF_PERICENTER": 61.0617, "MEAN_ANOMALY": 228.8591, "EPHEMERIS_TYPE": 0, "CLASSIFICATION_TYPE": "U", "NORAD_CAT_ID": 54742, "ELEMENT_SET_NO": 999, "REV_AT_EPOCH": 1095, "BSTAR": 0, "MEAN_MOTION_DOT": -1.6e-06, "MEAN_MOTION_DDOT": 0}, "tle": {"line1": "1 54742U 22170B   25351.60894262 -.00000160  00000+0  00000+0 0  9993", "line2": "2 54742   0.0136 286.7849 0000270  61.0617 228.8591  1.00272010 10951"}}, "geometry": {"type": "Point", "coordinates": [72.71053720239239, 0.023630121857003812]}}, {"type": "Feature", "properties": {"norad_id": 57493, "name": "GALAXY 37 (G-37)", "group": "intelsat", "lat": 0.004864047566626412, "lon": 34.742873673006756, "alt_km": 35790.35199482719, "timestamp": "2025-12-18T04:58:34.248636+00:00", "meta": {"OBJECT_NAME": "GALAXY 37 (G-37)", "OBJECT_ID": "2023-112A", "EPOCH": "2025-12-15T23:03:25.663680", "MEAN_MOTION": 1.00272925, "ECCENTRICITY": 0.00019988, "INCLINATION": 0.0242, "RA_OF_ASC_NODE": 56.2601, "ARG_OF_PERICENTER": 214.3075, "MEAN_ANOMALY": 33.1555, "EPHEMERIS_TYPE": 0, "CLASSIFICATION_TYPE": "U", "NORAD_CAT_ID": 57493, "ELEMENT_SET_NO": 999, "REV_AT_EPOCH": 870, "BSTAR": 0, "MEAN_MOTION_DOT": 7e-07, "MEAN_MOTION_DDOT": 0}, "tle": {"line1": "1 57493U 23112A   25349.96071370  .00000070  00000+0  00000+0 0  9998", "line2": "2 57493   0.0242  56.2601 0001998 214.3075  33.1555  1.00272925  8702"}}, "geometry": {"type": "Point", "coordinates": [34.742873673006756, 0.004864047566626412]}}]}